[Satellite]
VERSION=1.1
NAME=MAX VALIER SAT
NICKNAME=MAX VALIER SAT
TLE1=1 42778U 17036P   18020.76291182  .00000989  00000-0  47688-4 0  9995
TLE2=2 42778  97.4246  82.7880 0011782 220.3653 139.6709 15.20987020 32098
